NORAD_CAT_ID,OBJECT_NAME,OBJECT_TYPE,EPOCH,MEAN_MOTION,ECCENTRICITY,INCLINATION,RA_OF_ASC_NODE,ARG_OF_PERICENTER,MEAN_ANOMALY,BSTAR,MEAN_MOTION_DOT,MEAN_MOTION_DDOT,TLE_LINE0,TLE_LINE1,TLE_LINE2,SEMIMAJOR_AXIS,PERIOD,APOGEE,PERIGEE,DECAYED
51774.0,STARLINK-3629,PAYLOAD,2023-04-17 19:13:25,15.08834398,0.0001218,53.2185,43.6752,110.238,249.8743,0.00010693,1.414e-05,0.0,0 STARLINK-3629,1 51774U 22017G   23107.80098943  .00001414  00000-0  10693-3 0  9992,2 51774  53.2185  43.6752 0001218 110.2380 249.8743 15.08834398 63010,6917.898,95.438,540.605,538.92,0.0
51774.0,STARLINK-3629,PAYLOAD,2023-04-18 04:45:43,15.08845903,0.0001161,53.2175,41.8932,107.864,252.2479,0.00026866,3.991e-05,0.0,0 STARLINK-3629,1 51774U 22017G   23108.19842481  .00003991  00000-0  26866-3 0  9990,2 51774  53.2175  41.8932 0001161 107.8640 252.2479 15.08845903 63071,6917.862,95.437,540.531,538.924,0.0
51774.0,STARLINK-3629,PAYLOAD,2023-04-18 19:04:12,15.0883572,0.0001308,53.2188,39.218,100.1823,259.9317,0.0001426,1.982e-05,0.0,0 STARLINK-3629,1 51774U 22017G   23108.79459168  .00001982  00000-0  14260-3 0  9995,2 51774  53.2188  39.2180 0001308 100.1823 259.9317 15.08835720 64660,6917.893,95.438,540.663,538.854,0.0
51774.0,STARLINK-3629,PAYLOAD,2023-04-19 04:36:31,15.08845243,0.0001182,53.2168,37.4333,100.123,259.9895,0.0002594,3.843e-05,0.0,0 STARLINK-3629,1 51774U 22017G   23109.19202867  .00003843  00000-0  25940-3 0  9997,2 51774  53.2168  37.4333 0001182 100.1230 259.9895 15.08845243 63223,6917.864,95.437,540.547,538.912,0.0
51774.0,STARLINK-3629,PAYLOAD,2023-04-20 04:27:17,15.08852897,0.000116,53.2171,32.9724,95.3147,264.7978,0.00029702,4.444e-05,0.0,0 STARLINK-3629,1 51774U 22017G   23110.18562420  .00004444  00000-0  29702-3 0  9990,2 51774  53.2171  32.9724 0001160  95.3147 264.7978 15.08852897 63374,6917.841,95.437,540.508,538.903,0.0
51774.0,STARLINK-3629,PAYLOAD,2023-04-21 04:18:05,15.08835411,0.0001291,53.2184,28.5127,96.2534,263.8605,-1.1812e-05,-4.76e-06,0.0,0 STARLINK-3629,1 51774U 22017G   23111.17923353 -.00000476  00000-0 -11812-4 0  9993,2 51774  53.2184  28.5127 0001291  96.2534 263.8605 15.08835411 65025,6917.894,95.438,540.653,538.866,0.0
51774.0,STARLINK-3629,PAYLOAD,2023-04-22 00:58:06,15.08848539,0.0001017,53.2174,24.6494,93.1789,266.9319,0.00012431,1.692e-05,0.0,0 STARLINK-3629,1 51774U 22017G   23112.04034944  .00001692  00000-0  12431-3 0  9995,2 51774  53.2174  24.6494 0001017  93.1789 266.9319 15.08848539 63650,6917.854,95.437,540.423,539.016,0.0
51774.0,STARLINK-3629,PAYLOAD,2023-04-23 00:48:53,15.08849026,0.0001129,53.2181,20.1885,91.9825,268.1297,0.0001901,2.74e-05,0.0,0 STARLINK-3629,1 51774U 22017G   23113.03394737  .00002740  00000-0  19010-3 0  9999,2 51774  53.2181  20.1885 0001129  91.9825 268.1297 15.08849026 63802,6917.853,95.437,540.499,538.937,0.0
51774.0,STARLINK-3629,PAYLOAD,2023-04-23 18:18:07,15.08845235,0.0001052,53.2186,16.9178,87.5927,272.5185,-6.5497e-05,-1.33e-05,0.0,0 STARLINK-3629,1 51774U 22017G   23113.76258597 -.00001330  00000-0 -65497-4 0  9999,2 51774  53.2186  16.9178 0001052  87.5927 272.5185 15.08845235 65416,6917.864,95.437,540.457,539.002,0.0
51774.0,STARLINK-3629,PAYLOAD,2023-04-24 02:15:02,15.08853672,0.0001151,53.2189,15.433,96.7321,263.3802,9.3249e-05,1.197e-05,0.0,0 STARLINK-3629,1 51774U 22017G   23114.09378184  .00001197  00000-0  93249-4 0  9996,2 51774  53.2189  15.4330 0001151  96.7321 263.3802 15.08853672 65466,6917.839,95.437,540.5,538.907,0.0
51774.0,STARLINK-3629,PAYLOAD,2023-04-25 00:30:24,15.08890352,0.000123,53.2176,11.2676,106.2847,253.8281,0.0010307,0.00016176,0.0,0 STARLINK-3629,1 51774U 22017G   23115.02111873  .00016176  00000-0  10307-2 0  9995,2 51774  53.2176  11.2676 0001230 106.2847 253.8281 15.08890352 64108,6917.726,95.434,540.442,538.741,0.0
51774.0,STARLINK-3629,PAYLOAD,2023-04-25 16:24:18,15.08809341,0.0001527,53.2171,8.2918,114.169,245.9462,-0.0010749,-0.0001734,0.0,0 STARLINK-3629,1 51774U 22017G   23115.68354206 -.00017340  00000-0 -10749-2 0  9992,2 51774  53.2171   8.2918 0001527 114.1690 245.9462 15.08809341 65709,6917.974,95.439,540.895,538.783,0.0
51774.0,STARLINK-3629,PAYLOAD,2023-04-26 01:56:38,15.08797452,0.0001194,53.2172,6.5081,106.8165,253.2958,-0.00069123,-0.00011259,0.0,0 STARLINK-3629,1 51774U 22017G   23116.08099595 -.00011259  00000-0 -69123-3 0  9998,2 51774  53.2172   6.5081 0001194 106.8165 253.2958 15.08797452 64268,6918.01,95.44,540.701,539.049,0.0
51774.0,STARLINK-3629,PAYLOAD,2023-04-26 22:36:39,15.0882811,0.0001407,53.2169,2.6445,93.4982,266.6171,0.00065878,0.00010209,0.0,0 STARLINK-3629,1 51774U 22017G   23116.94212502  .00010209  00000-0  65878-3 0  9993,2 51774  53.2169   2.6445 0001407  93.4982 266.6171 15.08828110 64395,6917.917,95.438,540.755,538.808,0.0
51774.0,STARLINK-3629,PAYLOAD,2023-04-27 22:27:26,15.08863565,0.0001653,53.2171,358.1881,77.7793,282.3384,0.00090942,0.00014224,0.0,0 STARLINK-3629,1 51774U 22017G   23117.93572101  .00014224  00000-0  90942-3 0  9998,2 51774  53.2171 358.1881 0001653  77.7793 282.3384 15.08863565 66047,6917.808,95.436,540.817,538.53,0.0
51774.0,STARLINK-3629,PAYLOAD,2023-04-28 09:35:07,15.08861247,0.0001854,53.2172,356.1054,72.3415,287.778,0.00031688,4.762e-05,0.0,0 STARLINK-3629,1 51774U 22017G   23118.39939466  .00004762  00000-0  31688-3 0  9998,2 51774  53.2172 356.1054 0001854  72.3415 287.7780 15.08861247 66115,6917.815,95.436,540.963,538.398,0.0
51774.0,STARLINK-3629,PAYLOAD,2023-04-28 15:56:40,15.08845866,0.0001809,53.2183,354.9168,65.4914,294.6267,-0.00015326,-2.727e-05,0.0,0 STARLINK-3629,1 51774U 22017G   23118.66435774 -.00002727  00000-0 -15326-3 0  9993,2 51774  53.2183 354.9168 0001809  65.4914 294.6267 15.08845866 66156,6917.862,95.437,540.979,538.476,0.0
51774.0,STARLINK-3629,PAYLOAD,2023-04-29 01:28:59,15.08849056,0.0001428,53.2167,353.129,85.8671,274.2484,0.00011436,1.533e-05,0.0,0 STARLINK-3629,1 51774U 22017G   23119.06179487  .00001533  00000-0  11436-3 0  9994,2 51774  53.2167 353.1290 0001428  85.8671 274.2484 15.08849056 64718,6917.853,95.437,540.706,538.73,0.0
51774.0,STARLINK-3629,PAYLOAD,2023-04-29 18:58:13,15.08840841,0.0001175,53.2167,349.857,86.1097,274.0029,0.00068678,0.00010659,0.0,0 STARLINK-3629,1 51774U 22017G   23119.79043918  .00010659  00000-0  68678-3 0  9992,2 51774  53.2167 349.8570 0001175  86.1097 274.0029 15.08840841 66321,6917.878,95.438,540.556,538.93,0.0
51774.0,STARLINK-3629,PAYLOAD,2023-04-30 14:02:51,15.08844372,0.0001442,53.218,346.2925,93.386,266.7297,0.00026463,3.927e-05,0.0,0 STARLINK-3629,1 51774U 22017G   23120.58531911  .00003927  00000-0  26463-3 0  9992,2 51774  53.2180 346.2925 0001442  93.3860 266.7297 15.08844372 64940,6917.867,95.437,540.73,538.734,0.0
51774.0,STARLINK-3629,PAYLOAD,2023-04-30 15:38:14,15.0884209,0.000129,53.2169,345.9917,92.5383,267.5757,0.00028184,4.201e-05,0.0,0 STARLINK-3629,1 51774U 22017G   23120.65155976  .00004201  00000-0  28184-3 0  9991,2 51774  53.2169 345.9917 0001290  92.5383 267.5757 15.08842090 66459,6917.874,95.437,540.631,538.847,0.0
51774.0,STARLINK-3629,PAYLOAD,2023-05-01 01:10:33,15.08842878,0.000141,53.2173,344.2084,90.4492,269.6662,0.00018742,2.696e-05,0.0,0 STARLINK-3629,1 51774U 22017G   23121.04899984  .00002696  00000-0  18742-3 0  9994,2 51774  53.2173 344.2084 0001410  90.4492 269.6662 15.08842878 65016,6917.872,95.437,540.712,538.761,0.0
51774.0,STARLINK-3629,PAYLOAD,2023-05-01 20:15:11,15.08836847,0.0001342,53.2177,340.6413,91.5104,268.6042,2.3471e-05,8.6e-07,0.0,0 STARLINK-3629,1 51774U 22017G   23121.84388297  .00000086  00000-0  23471-4 0  9999,2 51774  53.2177 340.6413 0001342  91.5104 268.6042 15.08836847 65135,6917.89,95.438,540.683,538.827,0.0
51774.0,STARLINK-3629,PAYLOAD,2023-05-01 21:50:34,15.08839218,0.0001358,53.2178,340.344,90.7311,269.3837,5.8683e-05,6.46e-06,0.0,0 STARLINK-3629,1 51774U 22017G   23121.91012259  .00000646  00000-0  58683-4 0  9994,2 51774  53.2178 340.3440 0001358  90.7311 269.3837 15.08839218 66643,6917.883,95.438,540.687,538.808,0.0
51774.0,STARLINK-3629,PAYLOAD,2023-05-02 01:01:20,15.08842337,0.0001304,53.2177,339.7487,89.3236,270.7906,8.8892e-05,1.127e-05,0.0,0 STARLINK-3629,1 51774U 22017G   23122.04260093  .00001127  00000-0  88892-4 0  9990,2 51774  53.2177 339.7487 0001304  89.3236 270.7906 15.08842337 65161,6917.873,95.437,540.64,538.836,0.0
51774.0,STARLINK-3629,PAYLOAD,2023-05-02 20:05:58,15.08842743,0.0001314,53.2176,336.1806,89.3479,270.7664,0.0001271,1.736e-05,0.0,0 STARLINK-3629,1 51774U 22017G   23122.83748140  .00001736  00000-0  12710-3 0  9992,2 51774  53.2176 336.1806 0001314  89.3479 270.7664 15.08842743 65281,6917.872,95.437,540.646,538.828,0.0
51774.0,STARLINK-3629,PAYLOAD,2023-05-03 00:52:07,15.08849914,0.0001302,53.2174,335.2882,88.0541,272.06,0.00022015,3.218e-05,0.0,0 STARLINK-3629,1 51774U 22017G   23123.03619743  .00003218  00000-0  22015-3 0  9997,2 51774  53.2174 335.2882 0001302  88.0541 272.0600 15.08849914 66818,6917.85,95.437,540.616,538.814,0.0
51774.0,STARLINK-3629,PAYLOAD,2023-05-03 07:13:40,15.08841086,0.0001377,53.2175,334.0978,82.3207,277.7942,4.9857e-05,5.06e-06,0.0,0 STARLINK-3629,1 51774U 22017G   23123.30116133  .00000506  00000-0  49857-4 0  9993,2 51774  53.2175 334.0978 0001377  82.3207 277.7942 15.08841086 66857,6917.877,95.437,540.695,538.789,0.0
51774.0,STARLINK-3629,PAYLOAD,2023-05-03 21:32:08,15.08837791,0.0001284,53.2171,331.424,80.609,279.5047,1.248e-05,-8.9e-07,0.0,0 STARLINK-3629,1 51774U 22017G   23123.89732473 -.00000089  00000-0  12480-4 0  9997,2 51774  53.2171 331.4240 0001284  80.6090 279.5047 15.08837791 65442,6917.887,95.438,540.64,538.864,0.0
51774.0,STARLINK-3629,PAYLOAD,2023-05-04 13:26:00,15.0884189,0.0001197,53.2164,328.4497,75.5244,284.5881,9.7731e-05,1.268e-05,0.0,0 STARLINK-3629,1 51774U 22017G   23124.55972309  .00001268  00000-0  97731-4 0  9996,2 51774  53.2164 328.4497 0001197  75.5244 284.5881 15.08841890 67046,6917.875,95.437,540.568,538.912,0.0
